{
  "type": "Feature",
  "properties": {
    "place_id": 168600815,
    "osm_type": "relation",
    "osm_id": 337422,
    "place_rank": 8,
    "category": "boundary",
    "type": "administrative",
    "importance": 0.8089536713550287,
    "addresstype": "state",
    "name": "Санкт-Петербург",
    "display_name": "Санкт-Петербург, Северо-Западный федеральный округ, Россия"
  },
  "bbox": [
    29.4257576,
    59.6337832,
    30.7594934,
    60.2448369
  ],
  "geometry": {
    "type": "MultiPolygon",
    "coordinates": [
      [
        [
          [
            29.4257576,
            60.1907379
          ],
          [
            29.447724,
            60.1889848
          ],
          [
            29.4511692,
            60.1858651
          ],
          [
            29.4600232,
            60.1837358
          ],
          [
            29.4686534,
            60.1852423
          ],
          [
            29.4699632,
            60.183608
          ],
          [
            29.4683198,
            60.1833957
          ],
          [
            29.469156,
            60.1815371
          ],
          [
            29.4490735,
            60.1799659
          ],
          [
            29.4383398,
            60.1754529
          ],
          [
            29.442228,
            60.174972
          ],
          [
            29.4425965,
            60.1734336
          ],
          [
            29.4476197,
            60.173685
          ],
          [
            29.4501182,
            60.1722665
          ],
          [
            29.4494117,
            60.1710974
          ],
          [
            29.4603683,
            60.1722953
          ],
          [
            29.4649727,
            60.1697115
          ],
          [
            29.541355,
            60.0424784
          ],
          [
            29.5772818,
            60.0059568
          ],
          [
            29.6479422,
            59.9282028
          ],
          [
            29.6600456,
            59.926975
          ],
          [
            29.6613298,
            59.924807
          ],
          [
            29.6562889,
            59.9166362
          ],
          [
            29.6937193,
            59.9102556
          ],
          [
            29.7220797,
            59.9015002
          ],
          [
            29.7270172,
            59.8942564
          ],
          [
            29.7149449,
            59.8892773
          ],
          [
            29.7164173,
            59.8741168
          ],
          [
            29.7245003,
            59.8711035
          ],
          [
            29.7351915,
            59.8708422
          ],
          [
            29.7368946,
            59.8724451
          ],
          [
            29.7501241,
            59.871747
          ],
          [
            29.7501265,
            59.8688408
          ],
          [
            29.7644073,
            59.8692559
          ],
          [
            29.7713558,
            59.8722202
          ],
          [
            29.7998692,
            59.8586579
          ],
          [
            29.82334,
            59.8689069
          ],
          [
            29.8306469,
            59.8655111
          ],
          [
            29.8349059,
            59.8661426
          ],
          [
            29.8348655,
            59.8681928
          ],
          [
            29.8374727,
            59.867827
          ],
          [
            29.8590869,
            59.8620716
          ],
          [
            29.8578197,
            59.8611115
          ],
          [
            29.8625382,
            59.8554419
          ],
          [
            29.8675118,
            59.8538573
          ],
          [
            29.8719967,
            59.8564694
          ],
          [
            29.8714841,
            59.8588979
          ],
          [
            29.8742159,
            59.858646
          ],
          [
            29.8744968,
            59.8568409
          ],
          [
            29.8805624,
            59.8519939
          ],
          [
            29.8764663,
            59.8481612
          ],
          [
            29.8797591,
            59.84785
          ],
          [
            29.8812123,
            59.8436161
          ],
          [
            29.8862337,
            59.8427839
          ],
          [
            29.8926471,
            59.8538816
          ],
          [
            29.8954743,
            59.8546608
          ],
          [
            29.9037971,
            59.8537493
          ],
          [
            29.9021944,
            59.8501937
          ],
          [
            29.9094222,
            59.848985
          ],
          [
            29.9102162,
            59.8513039
          ],
          [
            29.9452073,
            59.8448012
          ],
          [
            29.9367868,
            59.830588
          ],
          [
            29.9412596,
            59.8307848
          ],
          [
            29.944345,
            59.8288272
          ],
          [
            29.978358,
            59.8350956
          ],
          [
            29.9924542,
            59.8333795
          ],
          [
            30.0035669,
            59.8371039
          ],
          [
            30.014756,
            59.8350745
          ],
          [
            30.0178105,
            59.8361263
          ],
          [
            30.0202722,
            59.8332219
          ],
          [
            30.0307902,
            59.8375203
          ],
          [
            30.0442456,
            59.837299
          ],
          [
            30.0416019,
            59.8340807
          ],
          [
            30.0423422,
            59.8324363
          ],
          [
            30.0389089,
            59.8306894
          ],
          [
            30.0390806,
            59.8267153
          ],
          [
            30.0408509,
            59.8244612
          ],
          [
            30.0382618,
            59.8227762
          ],
          [
            30.0469663,
            59.8177356
          ],
          [
            30.0909658,
            59.8148603
          ],
          [
            30.1046843,
            59.817297
          ],
          [
            30.1276856,
            59.8090654
          ],
          [
            30.1234163,
            59.8044557
          ],
          [
            30.1048977,
            59.8028605
          ],
          [
            30.1056051,
            59.7973586
          ],
          [
            30.0987841,
            59.7954994
          ],
          [
            30.0979511,
            59.7839266
          ],
          [
            30.0839294,
            59.778596
          ],
          [
            30.0846326,
            59.7757298
          ],
          [
            30.0563799,
            59.7660567
          ],
          [
            30.0453501,
            59.7655258
          ],
          [
            30.0433427,
            59.7641834
          ],
          [
            30.0438245,
            59.7623881
          ],
          [
            30.0559636,
            59.763282
          ],
          [
            30.0563043,
            59.7618666
          ],
          [
            30.060568,
            59.7621912
          ],
          [
            30.0619703,
            59.7570123
          ],
          [
            30.0718652,
            59.7559438
          ],
          [
            30.0665334,
            59.7552664
          ],
          [
            30.0682605,
            59.7527314
          ],
          [
            30.0624768,
            59.752127
          ],
          [
            30.0639893,
            59.7498861
          ],
          [
            30.0761388,
            59.7479223
          ],
          [
            30.0617277,
            59.740868
          ],
          [
            30.0550926,
            59.7351849
          ],
          [
            30.0552978,
            59.7330652
          ],
          [
            30.0500484,
            59.7300039
          ],
          [
            30.0457785,
            59.7195836
          ],
          [
            30.0384198,
            59.7206975
          ],
          [
            30.0349646,
            59.7178541
          ],
          [
            30.0409922,
            59.7152416
          ],
          [
            30.0500183,
            59.7173239
          ],
          [
            30.0555489,
            59.7130753
          ],
          [
            30.0722545,
            59.7167836
          ],
          [
            30.0732764,
            59.7155986
          ],
          [
            30.0811271,
            59.7157716
          ],
          [
            30.0852463,
            59.7108968
          ],
          [
            30.1008979,
            59.6991988
          ],
          [
            30.1090228,
            59.7006129
          ],
          [
            30.1129393,
            59.6987042
          ],
          [
            30.1159908,
            59.6990682
          ],
          [
            30.1127484,
            59.6940697
          ],
          [
            30.1177898,
            59.6943607
          ],
          [
            30.1169607,
            59.6934393
          ],
          [
            30.1197177,
            59.6935631
          ],
          [
            30.1199263,
            59.6921542
          ],
          [
            30.131051,
            59.6936923
          ],
          [
            30.1359015,
            59.6963929
          ],
          [
            30.1354049,
            59.7003703
          ],
          [
            30.1375096,
            59.7004044
          ],
          [
            30.1326087,
            59.7067005
          ],
          [
            30.1234509,
            59.7068841
          ],
          [
            30.1224581,
            59.7089077
          ],
          [
            30.1204787,
            59.7079515
          ],
          [
            30.1093114,
            59.7164881
          ],
          [
            30.1099473,
            59.7179866
          ],
          [
            30.1083031,
            59.718606
          ],
          [
            30.1112428,
            59.7184856
          ],
          [
            30.1098561,
            59.7235085
          ],
          [
            30.106895,
            59.7244483
          ],
          [
            30.1065664,
            59.7289084
          ],
          [
            30.1047381,
            59.7292687
          ],
          [
            30.1086346,
            59.7310051
          ],
          [
            30.1119835,
            59.7356346
          ],
          [
            30.1089809,
            59.7364028
          ],
          [
            30.1086866,
            59.7378159
          ],
          [
            30.1158587,
            59.741397
          ],
          [
            30.1195206,
            59.7458152
          ],
          [
            30.1170151,
            59.7571896
          ],
          [
            30.1179873,
            59.7617794
          ],
          [
            30.1166312,
            59.7621759
          ],
          [
            30.1416855,
            59.7611696
          ],
          [
            30.1527763,
            59.7717536
          ],
          [
            30.1459901,
            59.7743835
          ],
          [
            30.148506,
            59.7772932
          ],
          [
            30.1474349,
            59.77798
          ],
          [
            30.1553334,
            59.7849393
          ],
          [
            30.1540776,
            59.7865703
          ],
          [
            30.1590094,
            59.7880361
          ],
          [
            30.158855,
            59.7925713
          ],
          [
            30.1628142,
            59.7962689
          ],
          [
            30.1538767,
            59.7968857
          ],
          [
            30.1593206,
            59.8011707
          ],
          [
            30.1765628,
            59.7960498
          ],
          [
            30.1798214,
            59.7934854
          ],
          [
            30.1775295,
            59.7915209
          ],
          [
            30.1796163,
            59.7907839
          ],
          [
            30.1888778,
            59.7914161
          ],
          [
            30.2114909,
            59.7976913
          ],
          [
            30.2839407,
            59.7878712
          ],
          [
            30.2711562,
            59.7785968
          ],
          [
            30.273624,
            59.7776172
          ],
          [
            30.26879,
            59.774728
          ],
          [
            30.2708985,
            59.7740398
          ],
          [
            30.2644056,
            59.7709532
          ],
          [
            30.2585587,
            59.7626787
          ],
          [
            30.3007209,
            59.7473867
          ],
          [
            30.2939071,
            59.7408573
          ],
          [
            30.2920714,
            59.7361462
          ],
          [
            30.2795051,
            59.7393289
          ],
          [
            30.2835211,
            59.7291937
          ],
          [
            30.2725375,
            59.7233259
          ],
          [
            30.2708091,
            59.7206158
          ],
          [
            30.2795072,
            59.7186446
          ],
          [
            30.2758706,
            59.7152083
          ],
          [
            30.2695244,
            59.7166565
          ],
          [
            30.2556184,
            59.7017245
          ],
          [
            30.2477364,
            59.6993611
          ],
          [
            30.2355964,
            59.6926663
          ],
          [
            30.2370572,
            59.691771
          ],
          [
            30.2316646,
            59.6893845
          ],
          [
            30.2364564,
            59.6860293
          ],
          [
            30.2289885,
            59.6841388
          ],
          [
            30.2182227,
            59.6730689
          ],
          [
            30.227528,
            59.6694311
          ],
          [
            30.2295891,
            59.6733981
          ],
          [
            30.2423983,
            59.670791
          ],
          [
            30.2495753,
            59.6710209
          ],
          [
            30.23863,
            59.6617833
          ],
          [
            30.2430525,
            59.6610257
          ],
          [
            30.242453,
            59.6581478
          ],
          [
            30.2453579,
            59.6533883
          ],
          [
            30.2531561,
            59.6526419
          ],
          [
            30.2615423,
            59.6486562
          ],
          [
            30.242922,
            59.6386297
          ],
          [
            30.254172,
            59.6337832
          ],
          [
            30.3065058,
            59.6620957
          ],
          [
            30.3264973,
            59.656861
          ],
          [
            30.3517739,
            59.6582327
          ],
          [
            30.3518589,
            59.6555483
          ],
          [
            30.3666685,
            59.6501939
          ],
          [
            30.3789375,
            59.6497553
          ],
          [
            30.3855329,
            59.6476039
          ],
          [
            30.395214,
            59.6516333
          ],
          [
            30.4085599,
            59.6489166
          ],
          [
            30.4217139,
            59.6566192
          ],
          [
            30.424034,
            59.6625252
          ],
          [
            30.4363874,
            59.6629782
          ],
          [
            30.4675665,
            59.6394423
          ],
          [
            30.4724887,
            59.6400422
          ],
          [
            30.481653,
            59.6377996
          ],
          [
            30.4887377,
            59.641864
          ],
          [
            30.488787,
            59.6432573
          ],
          [
            30.5055449,
            59.6461733
          ],
          [
            30.5025212,
            59.65858
          ],
          [
            30.5020866,
            59.6687035
          ],
          [
            30.4894345,
            59.6699988
          ],
          [
            30.4906515,
            59.6739485
          ],
          [
            30.4888424,
            59.6739276
          ],
          [
            30.4888362,
            59.6778819
          ],
          [
            30.4788556,
            59.6775961
          ],
          [
            30.4770756,
            59.680742
          ],
          [
            30.4858375,
            59.6847711
          ],
          [
            30.4880116,
            59.6885763
          ],
          [
            30.5205408,
            59.6909442
          ],
          [
            30.5232746,
            59.6935778
          ],
          [
            30.5222673,
            59.6958894
          ],
          [
            30.5195897,
            59.6964977
          ],
          [
            30.5244328,
            59.7003807
          ],
          [
            30.524459,
            59.7043457
          ],
          [
            30.5301592,
            59.7045314
          ],
          [
            30.5307795,
            59.7073363
          ],
          [
            30.5644206,
            59.7050203
          ],
          [
            30.5763451,
            59.7300056
          ],
          [
            30.59135,
            59.7291023
          ],
          [
            30.6173379,
            59.7308609
          ],
          [
            30.6166687,
            59.7354138
          ],
          [
            30.6299784,
            59.7358107
          ],
          [
            30.6481705,
            59.7212729
          ],
          [
            30.6829839,
            59.7249176
          ],
          [
            30.6801346,
            59.7299826
          ],
          [
            30.6957389,
            59.7437475
          ],
          [
            30.7030548,
            59.7452845
          ],
          [
            30.7570118,
            59.7437508
          ],
          [
            30.7499653,
            59.7485146
          ],
          [
            30.748713,
            59.75112
          ],
          [
            30.758891,
            59.7533698
          ],
          [
            30.7589336,
            59.7552503
          ],
          [
            30.7441342,
            59.7562449
          ],
          [
            30.7373582,
            59.759669
          ],
          [
            30.7400008,
            59.7652103
          ],
          [
            30.7344187,
            59.7692133
          ],
          [
            30.7267163,
            59.7708526
          ],
          [
            30.735294,
            59.7793018
          ],
          [
            30.7249105,
            59.7815223
          ],
          [
            30.7011066,
            59.7816375
          ],
          [
            30.6739267,
            59.785698
          ],
          [
            30.6601389,
            59.7896399
          ],
          [
            30.630154,
            59.7936846
          ],
          [
            30.5937947,
            59.8151925
          ],
          [
            30.5631437,
            59.8254548
          ],
          [
            30.5612016,
            59.8287728
          ],
          [
            30.5628468,
            59.8336219
          ],
          [
            30.5603591,
            59.8360776
          ],
          [
            30.5520931,
            59.8363918
          ],
          [
            30.5408213,
            59.8336241
          ],
          [
            30.5326969,
            59.8340624
          ],
          [
            30.5096438,
            59.8430852
          ],
          [
            30.4934929,
            59.847085
          ],
          [
            30.4921682,
            59.8499736
          ],
          [
            30.4934923,
            59.8582023
          ],
          [
            30.5080003,
            59.8596912
          ],
          [
            30.5086845,
            59.8612318
          ],
          [
            30.519999,
            59.8632286
          ],
          [
            30.4974091,
            59.8913632
          ],
          [
            30.4954193,
            59.891479
          ],
          [
            30.5131012,
            59.9705585
          ],
          [
            30.5268455,
            59.9740902
          ],
          [
            30.5281667,
            59.9730194
          ],
          [
            30.5329264,
            59.9739433
          ],
          [
            30.5433014,
            59.9774835
          ],
          [
            30.5524931,
            59.96899
          ],
          [
            30.5660293,
            59.9709647
          ],
          [
            30.5561707,
            59.9732775
          ],
          [
            30.5582084,
            59.9738116
          ],
          [
            30.5540861,
            59.9771796
          ],
          [
            30.5540876,
            59.9792315
          ],
          [
            30.548434,
            59.9787082
          ],
          [
            30.5516718,
            59.9811921
          ],
          [
            30.5445315,
            59.9804795
          ],
          [
            30.5361095,
            59.9829766
          ],
          [
            30.5281057,
            59.9820868
          ],
          [
            30.5312467,
            59.9832937
          ],
          [
            30.5308149,
            59.9846074
          ],
          [
            30.5331264,
            59.9845148
          ],
          [
            30.5331659,
            59.9870127
          ],
          [
            30.5362889,
            59.9866365
          ],
          [
            30.5377789,
            59.9881059
          ],
          [
            30.533702,
            59.9888018
          ],
          [
            30.5340268,
            59.9906212
          ],
          [
            30.5365772,
            59.9908469
          ],
          [
            30.5346946,
            59.992592
          ],
          [
            30.5174593,
            59.9853367
          ],
          [
            30.5080914,
            59.9871314
          ],
          [
            30.5088128,
            59.9886552
          ],
          [
            30.5061719,
            59.9905037
          ],
          [
            30.5072589,
            59.9927885
          ],
          [
            30.5035476,
            59.9956261
          ],
          [
            30.5035186,
            59.9993965
          ],
          [
            30.4994899,
            60.0004265
          ],
          [
            30.5039835,
            60.0064731
          ],
          [
            30.4992716,
            60.0084019
          ],
          [
            30.4954624,
            60.0078692
          ],
          [
            30.4939001,
            60.0096608
          ],
          [
            30.4901558,
            60.0082655
          ],
          [
            30.4879587,
            60.0102591
          ],
          [
            30.4857937,
            60.0147494
          ],
          [
            30.4898634,
            60.0186933
          ],
          [
            30.4891097,
            60.0230563
          ],
          [
            30.4830636,
            60.0201931
          ],
          [
            30.4796977,
            60.0225183
          ],
          [
            30.4758688,
            60.0227019
          ],
          [
            30.4751664,
            60.0251493
          ],
          [
            30.4673209,
            60.0229088
          ],
          [
            30.4641057,
            60.0258365
          ],
          [
            30.4683993,
            60.0273653
          ],
          [
            30.462163,
            60.0286117
          ],
          [
            30.4682312,
            60.033556
          ],
          [
            30.4614875,
            60.03454
          ],
          [
            30.4583365,
            60.0375389
          ],
          [
            30.4419316,
            60.0409456
          ],
          [
            30.4376124,
            60.039133
          ],
          [
            30.4355682,
            60.0420384
          ],
          [
            30.4156491,
            60.0467092
          ],
          [
            30.4184151,
            60.0495468
          ],
          [
            30.3881121,
            60.0570767
          ],
          [
            30.3887672,
            60.0588039
          ],
          [
            30.3854023,
            60.059742
          ],
          [
            30.3768761,
            60.0785843
          ],
          [
            30.373529,
            60.0805134
          ],
          [
            30.3706651,
            60.0877197
          ],
          [
            30.3683113,
            60.0902839
          ],
          [
            30.3632337,
            60.092016
          ],
          [
            30.3329732,
            60.0898075
          ],
          [
            30.3088302,
            60.0957146
          ],
          [
            30.3031048,
            60.0910995
          ],
          [
            30.2918368,
            60.093898
          ],
          [
            30.2918302,
            60.0959631
          ],
          [
            30.2874353,
            60.0961796
          ],
          [
            30.2756022,
            60.1028892
          ],
          [
            30.2748766,
            60.1081376
          ],
          [
            30.2714315,
            60.1102879
          ],
          [
            30.2710959,
            60.1163902
          ],
          [
            30.2661168,
            60.1195573
          ],
          [
            30.265125,
            60.123332
          ],
          [
            30.2592415,
            60.125653
          ],
          [
            30.235842,
            60.1185007
          ],
          [
            30.2248792,
            60.1180788
          ],
          [
            30.2192447,
            60.116497
          ],
          [
            30.2201196,
            60.1155265
          ],
          [
            30.2189562,
            60.1151327
          ],
          [
            30.1894306,
            60.118228
          ],
          [
            30.1947378,
            60.1215391
          ],
          [
            30.1932634,
            60.1277682
          ],
          [
            30.1835594,
            60.1274177
          ],
          [
            30.1833164,
            60.1294058
          ],
          [
            30.1715881,
            60.1287724
          ],
          [
            30.1730935,
            60.1302893
          ],
          [
            30.1727327,
            60.1334388
          ],
          [
            30.1757755,
            60.1346298
          ],
          [
            30.1759416,
            60.1361295
          ],
          [
            30.1743316,
            60.1363234
          ],
          [
            30.1716127,
            60.1329807
          ],
          [
            30.1615287,
            60.1296591
          ],
          [
            30.1473857,
            60.134373
          ],
          [
            30.0595506,
            60.1360162
          ],
          [
            30.0180219,
            60.1442872
          ],
          [
            30.0209673,
            60.1521839
          ],
          [
            30.0124565,
            60.1563325
          ],
          [
            30.0119251,
            60.1587707
          ],
          [
            30.0073555,
            60.1624671
          ],
          [
            30.0087116,
            60.1643095
          ],
          [
            30.0073237,
            60.1649981
          ],
          [
            30.0029143,
            60.1656805
          ],
          [
            30.001458,
            60.161844
          ],
          [
            29.9988668,
            60.1611532
          ],
          [
            29.9864181,
            60.1655637
          ],
          [
            29.9873913,
            60.1666368
          ],
          [
            29.9849728,
            60.1668458
          ],
          [
            29.986596,
            60.1682588
          ],
          [
            29.9822352,
            60.1672552
          ],
          [
            29.9848047,
            60.1694979
          ],
          [
            29.9814331,
            60.170166
          ],
          [
            29.98253,
            60.1713839
          ],
          [
            29.9808813,
            60.1712038
          ],
          [
            29.9806231,
            60.1726863
          ],
          [
            29.9753713,
            60.1720399
          ],
          [
            29.9759735,
            60.1730425
          ],
          [
            29.974353,
            60.1737877
          ],
          [
            29.9693437,
            60.1734814
          ],
          [
            29.9622397,
            60.176795
          ],
          [
            29.9555174,
            60.1754942
          ],
          [
            29.9550586,
            60.1768956
          ],
          [
            29.9366169,
            60.1819567
          ],
          [
            29.9269046,
            60.1833127
          ],
          [
            29.9255802,
            60.1819181
          ],
          [
            29.892634,
            60.1890909
          ],
          [
            29.8941295,
            60.1922057
          ],
          [
            29.8926453,
            60.1950813
          ],
          [
            29.8716632,
            60.1938143
          ],
          [
            29.8631778,
            60.1966974
          ],
          [
            29.8491181,
            60.1972949
          ],
          [
            29.836887,
            60.2035002
          ],
          [
            29.8328859,
            60.2027182
          ],
          [
            29.8259926,
            60.2063847
          ],
          [
            29.8301553,
            60.206915
          ],
          [
            29.8018815,
            60.2212534
          ],
          [
            29.7856758,
            60.2220783
          ],
          [
            29.7833137,
            60.2246642
          ],
          [
            29.7768395,
            60.2260699
          ],
          [
            29.7705756,
            60.2303579
          ],
          [
            29.7710609,
            60.2330525
          ],
          [
            29.7597865,
            60.2369867
          ],
          [
            29.7580155,
            60.2427009
          ],
          [
            29.7346257,
            60.2396815
          ],
          [
            29.7216056,
            60.241706
          ],
          [
            29.7133948,
            60.2414747
          ],
          [
            29.7097028,
            60.2397976
          ],
          [
            29.7127625,
            60.2395415
          ],
          [
            29.7141161,
            60.2365164
          ],
          [
            29.7175149,
            60.2352408
          ],
          [
            29.716405,
            60.234775
          ],
          [
            29.717501,
            60.2339297
          ],
          [
            29.7141538,
            60.23261
          ],
          [
            29.7204568,
            60.2282992
          ],
          [
            29.7199024,
            60.2259241
          ],
          [
            29.7118538,
            60.2268251
          ],
          [
            29.6952496,
            60.2347424
          ],
          [
            29.7083273,
            60.2398078
          ],
          [
            29.7065102,
            60.243936
          ],
          [
            29.6998985,
            60.2448369
          ],
          [
            29.6951527,
            60.2399863
          ],
          [
            29.6831672,
            60.2404694
          ],
          [
            29.677561,
            60.2369184
          ],
          [
            29.6439646,
            60.2421923
          ],
          [
            29.6398456,
            60.2390193
          ],
          [
            29.6436999,
            60.2374076
          ],
          [
            29.6370367,
            60.233675
          ],
          [
            29.6236261,
            60.2374637
          ],
          [
            29.6213293,
            60.2371631
          ],
          [
            29.6198924,
            60.2344184
          ],
          [
            29.6077227,
            60.2310287
          ],
          [
            29.6008971,
            60.2344325
          ],
          [
            29.5982705,
            60.2291949
          ],
          [
            29.5891905,
            60.2276078
          ],
          [
            29.58475,
            60.2220017
          ],
          [
            29.5792714,
            60.219815
          ],
          [
            29.5512293,
            60.2250143
          ],
          [
            29.5387743,
            60.2236739
          ],
          [
            29.5367052,
            60.2207666
          ],
          [
            29.5212352,
            60.2257153
          ],
          [
            29.5222633,
            60.2280744
          ],
          [
            29.5212786,
            60.2334783
          ],
          [
            29.4969862,
            60.2211632
          ],
          [
            29.4900104,
            60.2251179
          ],
          [
            29.4257576,
            60.1907379
          ]
        ],
        [
          [
            30.1295059,
            59.7825016
          ],
          [
            30.1499325,
            59.8009257
          ],
          [
            30.1553865,
            59.7992478
          ],
          [
            30.1392953,
            59.7855661
          ],
          [
            30.1378348,
            59.7860076
          ],
          [
            30.1332614,
            59.7820046
          ],
          [
            30.1295059,
            59.7825016
          ]
        ]
      ],
      [
        [
          [
            30.0650571,
            59.6683027
          ],
          [
            30.073311,
            59.6673744
          ],
          [
            30.082713,
            59.6760822
          ],
          [
            30.0839517,
            59.6802946
          ],
          [
            30.065169,
            59.677984
          ],
          [
            30.0650571,
            59.6683027
          ]
        ]
      ]
    ]
  }
}
